{
  "type": "FeatureCollection",
  "features": [
    {
      "type": "Feature",
      "properties": {
        "norad_id": 31150,
        "name": "FENGYUN 1C DEB",
        "group": "fengyun-1c-debris",
        "lat": -69.97910748597741,
        "lon": 162.8782011790138,
        "alt_km": 864.1433427111615,
        "timestamp": "2025-12-25T09:48:52.570767+00:00",
        "meta_object_name": "FENGYUN 1C DEB",
        "meta_object_id": "1999-025BHC",
        "meta_epoch": "2025-12-23T07:24:25.075584",
        "meta_mean_motion": 14.12739206,
        "meta_eccentricity": 0.00157308,
        "meta_inclination": 98.6854,
        "meta_ra_of_asc_node": 5.6444,
        "meta_arg_of_pericenter": 130.5233,
        "meta_mean_anomaly": 245.238,
        "meta_ephemeris_type": 0,
        "meta_classification_type": "U",
        "meta_norad_cat_id": 31150,
        "meta_element_set_no": 999,
        "meta_rev_at_epoch": 96446,
        "meta_bstar": 0.00014385213,
        "meta_mean_motion_dot": 2.25e-06,
        "meta_mean_motion_ddot": 0,
        "tle_line1": "1 31150U 99025BHC 25357.30862356  .00000225  00000+0  14385-3 0  9992",
        "tle_line2": "2 31150  98.6854   5.6444 0015730 130.5233 245.2380 14.12739206964466"
      },
      "geometry": {
        "type": "Point",
        "coordinates": [
          162.8782011790138,
          -69.97910748597741
        ]
      }
    },
    {
      "type": "Feature",
      "properties": {
        "norad_id": 31151,
        "name": "FENGYUN 1C DEB",
        "group": "fengyun-1c-debris",
        "lat": -67.29924022534178,
        "lon": 27.99441683353918,
        "alt_km": 790.8104547668345,
        "timestamp": "2025-12-25T09:48:52.570777+00:00",
        "meta_object_name": "FENGYUN 1C DEB",
        "meta_object_id": "1999-025BHD",
        "meta_epoch": "2025-12-22T11:24:18.125856",
        "meta_mean_motion": 14.25906921,
        "meta_eccentricity": 0.00563274,
        "meta_inclination": 99.1351,
        "meta_ra_of_asc_node": 2.3164,
        "meta_arg_of_pericenter": 357.1221,
        "meta_mean_anomaly": 2.9626,
        "meta_ephemeris_type": 0,
        "meta_classification_type": "U",
        "meta_norad_cat_id": 31151,
        "meta_element_set_no": 999,
        "meta_rev_at_epoch": 96113,
        "meta_bstar": 0.0023357835,
        "meta_mean_motion_dot": 5.613e-05,
        "meta_mean_motion_ddot": 0,
        "tle_line1": "1 31151U 99025BHD 25356.47520979  .00005613  00000+0  23358-2 0  9997",
        "tle_line2": "2 31151  99.1351   2.3164 0056327 357.1221   2.9626 14.25906921961135"
      },
      "geometry": {
        "type": "Point",
        "coordinates": [
          27.99441683353918,
          -67.29924022534178
        ]
      }
    },
    {
      "type": "Feature",
      "properties": {
        "norad_id": 31152,
        "name": "FENGYUN 1C DEB",
        "group": "fengyun-1c-debris",
        "lat": 68.24562839018662,
        "lon": -172.51754745694825,
        "alt_km": 802.8436775154214,
        "timestamp": "2025-12-25T09:48:52.570787+00:00",
        "meta_object_name": "FENGYUN 1C DEB",
        "meta_object_id": "1999-025BHE",
        "meta_epoch": "2025-12-24T10:36:14.536224",
        "meta_mean_motion": 14.35857873,
        "meta_eccentricity": 0.01294685,
        "meta_inclination": 98.4153,
        "meta_ra_of_asc_node": 344.7627,
        "meta_arg_of_pericenter": 358.5548,
        "meta_mean_anomaly": 154.0061,
        "meta_ephemeris_type": 0,
        "meta_classification_type": "U",
        "meta_norad_cat_id": 31152,
        "meta_element_set_no": 999,
        "meta_rev_at_epoch": 98216,
        "meta_bstar": 0.00011929315,
        "meta_mean_motion_dot": 3.34e-06,
        "meta_mean_motion_ddot": 0,
        "tle_line1": "1 31152U 99025BHE 25358.44183491  .00000334  00000+0  11929-3 0  9998",
        "tle_line2": "2 31152  98.4153 344.7627 0129468 358.5548 154.0061 14.35857873982169"
      },
      "geometry": {
        "type": "Point",
        "coordinates": [
          -172.51754745694825,
          68.24562839018662
        ]
      }
    },
    {
      "type": "Feature",
      "properties": {
        "norad_id": 31155,
        "name": "FENGYUN 1C DEB",
        "group": "fengyun-1c-debris",
        "lat": -24.499379429910892,
        "lon": -115.79648061105918,
        "alt_km": 904.2389721187355,
        "timestamp": "2025-12-25T09:48:52.570797+00:00",
        "meta_object_name": "FENGYUN 1C DEB",
        "meta_object_id": "1999-025BHH",
        "meta_epoch": "2025-12-24T15:47:19.171392",
        "meta_mean_motion": 14.08371508,
        "meta_eccentricity": 0.00887031,
        "meta_inclination": 99.041,
        "meta_ra_of_asc_node": 67.6119,
        "meta_arg_of_pericenter": 329.017,
        "meta_mean_anomaly": 30.5783,
        "meta_ephemeris_type": 0,
        "meta_classification_type": "U",
        "meta_norad_cat_id": 31155,
        "meta_element_set_no": 999,
        "meta_rev_at_epoch": 95755,
        "meta_bstar": 0.0010957238,
        "meta_mean_motion_dot": 1.899e-05,
        "meta_mean_motion_ddot": 0,
        "tle_line1": "1 31155U 99025BHH 25358.65786078  .00001899  00000+0  10957-2 0  9990",
        "tle_line2": "2 31155  99.0410  67.6119 0088703 329.0170  30.5783 14.08371508957552"
      },
      "geometry": {
        "type": "Point",
        "coordinates": [
          -115.79648061105918,
          -24.499379429910892
        ]
      }
    },
    {
      "type": "Feature",
      "properties": {
        "norad_id": 31157,
        "name": "FENGYUN 1C DEB",
        "group": "fengyun-1c-debris",
        "lat": 71.66525060709975,
        "lon": -44.30646153619932,
        "alt_km": 867.816972542897,
        "timestamp": "2025-12-25T09:48:52.570807+00:00",
        "meta_object_name": "FENGYUN 1C DEB",
        "meta_object_id": "1999-025BHK",
        "meta_epoch": "2025-12-15T04:42:10.430784",
        "meta_mean_motion": 14.22565872,
        "meta_eccentricity": 0.01000722,
        "meta_inclination": 98.4799,
        "meta_ra_of_asc_node": 332.6191,
        "meta_arg_of_pericenter": 319.3006,
        "meta_mean_anomaly": 40.0724,
        "meta_ephemeris_type": 0,
        "meta_classification_type": "U",
        "meta_norad_cat_id": 31157,
        "meta_element_set_no": 999,
        "meta_rev_at_epoch": 97018,
        "meta_bstar": 0.00031840475,
        "meta_mean_motion_dot": 7.06e-06,
        "meta_mean_motion_ddot": 0,
        "tle_line1": "1 31157U 99025BHK 25349.19595406  .00000706  00000+0  31840-3 0  9995",
        "tle_line2": "2 31157  98.4799 332.6191 0100072 319.3006  40.0724 14.22565872970186"
      },
      "geometry": {
        "type": "Point",
        "coordinates": [
          -44.30646153619932,
          71.66525060709975
        ]
      }
    },
    {
      "type": "Feature",
      "properties": {
        "norad_id": 31158,
        "name": "FENGYUN 1C DEB",
        "group": "fengyun-1c-debris",
        "lat": 11.497796510502727,
        "lon": 76.43725324900058,
        "alt_km": 749.5730752726322,
        "timestamp": "2025-12-25T09:48:52.570817+00:00",
        "meta_object_name": "FENGYUN 1C DEB",
        "meta_object_id": "1999-025BHL",
        "meta_epoch": "2025-12-21T11:56:21.493536",
        "meta_mean_motion": 14.33299733,
        "meta_eccentricity": 0.00468097,
        "meta_inclination": 98.7797,
        "meta_ra_of_asc_node": 74.2735,
        "meta_arg_of_pericenter": 8.2217,
        "meta_mean_anomaly": 351.9724,
        "meta_ephemeris_type": 0,
        "meta_classification_type": "U",
        "meta_norad_cat_id": 31158,
        "meta_element_set_no": 999,
        "meta_rev_at_epoch": 64605,
        "meta_bstar": 0.0012542591,
        "meta_mean_motion_dot": 3.451e-05,
        "meta_mean_motion_ddot": 0,
        "tle_line1": "1 31158U 99025BHL 25355.49747099  .00003451  00000+0  12543-2 0  9991",
        "tle_line2": "2 31158  98.7797  74.2735 0046809   8.2217 351.9724 14.33299733646058"
      },
      "geometry": {
        "type": "Point",
        "coordinates": [
          76.43725324900058,
          11.497796510502727
        ]
      }
    },
    {
      "type": "Feature",
      "properties": {
        "norad_id": 31159,
        "name": "FENGYUN 1C DEB",
        "group": "fengyun-1c-debris",
        "lat": -63.583259421148355,
        "lon": -24.150446965621217,
        "alt_km": 392.3362238680047,
        "timestamp": "2025-12-25T09:48:52.570826+00:00",
        "meta_object_name": "FENGYUN 1C DEB",
        "meta_object_id": "1999-025BHM",
        "meta_epoch": "2025-12-24T15:22:37.463232",
        "meta_mean_motion": 15.39999137,
        "meta_eccentricity": 0.01060224,
        "meta_inclination": 97.8003,
        "meta_ra_of_asc_node": 319.0118,
        "meta_arg_of_pericenter": 331.376,
        "meta_mean_anomaly": 28.1688,
        "meta_ephemeris_type": 0,
        "meta_classification_type": "U",
        "meta_norad_cat_id": 31159,
        "meta_element_set_no": 999,
        "meta_rev_at_epoch": 99736,
        "meta_bstar": 0.0016103955,
        "meta_mean_motion_dot": 0.00078937,
        "meta_mean_motion_ddot": 0,
        "tle_line1": "1 31159U 99025BHM 25358.64071138  .00078937  00000+0  16104-2 0  9994",
        "tle_line2": "2 31159  97.8003 319.0118 0106022 331.3760  28.1688 15.39999137997368"
      },
      "geometry": {
        "type": "Point",
        "coordinates": [
          -24.150446965621217,
          -63.583259421148355
        ]
      }
    }
  ]
}